GLOBALSTAR M084         
1 38040U 11080A   24135.55686869 -.00000082  00000+0  12115-3 0  9996
2 38040  51.9989 182.0489 0000220 209.1046 297.5857 12.62262459572327
GLOBALSTAR M080         
1 38041U 11080B   24135.85285468 -.00000085  00000+0  10342-3 0  9993
2 38041  52.0042 182.6159 0000499 202.0224 329.5464 12.62272638572485
GLOBALSTAR M082         
1 38042U 11080C   24135.92535506 -.00000097  00000+0  37896-4 0  9990
2 38042  52.0051 137.7987 0000747  40.5617  40.1353 12.62269526573209
GLOBALSTAR M092         
1 38043U 11080D   24135.56702358 -.00000073  00000+0  17293-3 0  9994
2 38043  52.0079 229.2426 0000253 144.7791 228.6334 12.62280326571826
GLOBALSTAR M090         
1 38044U 11080E   24135.73391774 -.00000095  00000+0  47186-4 0  9999
2 38044  51.9861 132.7019 0000494  53.1165 117.9658 12.62263201573290
GLOBALSTAR M086         
1 38045U 11080F   24135.76025267 -.00000091  00000+0  73032-4 0  9999
2 38045  51.9872 133.1414 0000900 144.6246  26.4442 12.62270864573248
GLOBALSTAR M097         
1 39072U 13005A   24135.90783452 -.00000078  00000+0  14134-3 0  9994
2 39072  52.0068  46.8360 0000888  79.8722 280.2245 12.62262845520514
GLOBALSTAR M093         
1 39073U 13005B   24135.88116572 -.00000076  00000+0  15350-3 0  9994
2 39073  51.9833  40.8564 0001024  80.7743 279.3240 12.62264134520461
